LEMUR-2-FINNIAN         
1 66782U 25276DX  26202.15636286  .00001812  00000+0  14778-3 0  9991
2 66782  97.5340 272.0921 0006788 337.1600  22.9321 15.00658169 25097
LEMUR-2-STARLIGHT       
1 66783U 25276DY  26202.14197301  .00005194  00000+0  42784-3 0  9996
2 66783  97.5237 271.6217 0014569  29.2659 330.9377 14.99404237 35282
LEMUR-2-TARTIFLETTE     
1 66784U 25276DZ  26202.14044286  .00004882  00000+0  40272-3 0  9993
2 66784  97.5234 271.6280 0013828  38.0070 322.2126 14.99385365 35288
LEMUR-2-VUKASIN         
1 66785U 25276EA  26202.17273402  .00003742  00000+0  30092-3 0  9994
2 66785  97.5200 272.0268 0002122  33.3780 326.7577 15.00579723 35245
LEMUR-2-HOTSPUR-TOM     
1 66786U 25276EB  26202.46894800  .00004586  00000+0  37963-3 0  9999
2 66786  97.5214 271.9170 0013537  28.9034 331.2937 14.99283924 35260
LEMUR-2-MYRA            
1 66787U 25276EC  26202.47115860  .00005052  00000+0  40264-3 0  9990
2 66787  97.5224 272.2363 0018532  34.9739 325.2699 15.00636487 35356
LEMUR-2 FIKRETDENGIZ    
1 67363U 26004A   26201.94882538  .00003002  00000+0  32834-3 0  9992
2 67363  97.8036 199.9951 0009784  39.3350 320.8576 14.88543101 28303
TWILIGHT-1 OBJECT B     
1 67364U 26004B   26201.98878606  .00001110  00000+0  12740-3 0  9990
2 67364  97.8078 200.0319 0009314  28.9865 331.1867 14.87805943 28319
LEMUR-2-MARIO-SOUSA     
1 67365U 26004C   26202.46556056  .00004015  00000+0  43480-3 0  9999
2 67365  97.8009 200.4991 0009375  39.3938 320.7959 14.88761231 28394
LEMUR-2-SONNENBLUME     
1 67367U 26004E   26202.46958888  .00002014  00000+0  22263-3 0  9993
2 67367  97.8005 200.4728 0009019  40.2531 319.9352 14.88475296 28395
LEMUR-2-WOBLER          
1 67368U 26004F   26202.45783234  .00003291  00000+0  35781-3 0  9991
2 67368  97.8058 200.6187 0008958  32.1371 328.0390 14.88727128 28395
LEMUR-2-GRAM-E-SUE      
1 67370U 26004H   26202.58487582  .00001796  00000+0  19851-3 0  9993
2 67370  97.7992 200.6030 0008228  43.4846 316.7018 14.88609827 28412
LEMUR-2-KATIE           
1 67387U 26004AA  26202.46755178  .00004159  00000+0  43383-3 0  9990
2 67387  97.8052 201.0598 0002881  18.3057 341.8264 14.90286089 28412
LEMUR-2-HCS-BAZUS       
1 67388U 26004AB  26201.99587166  .00002816  00000+0  29560-3 0  9997
2 67388  97.8039 200.5715 0002444  20.6749 339.4568 14.90288038 28340
